IRIDIUM 26              
1 24903U 97043A   25182.73799042  .00000312  00000+0  98383-4 0  9990
2 24903  86.3957 104.5112 0002382  81.4055 278.7412 14.37155028458835
DUMMY MASS 1            
1 24925U 97048A   25182.88552525  .00000351  00000+0  35989-4 0  9994
2 24925  86.3361 128.5353 0009088  93.3169 266.9096 14.86995612507319
IRIDIUM 29              
1 24944U 97051A   25182.90660227  .00000352  00000+0  11335-3 0  9990
2 24944  86.3976 137.7259 0002127  89.3221 270.8220 14.36477689455386
IRIDIUM 33              
1 24946U 97051C   25182.90457432  .00000282  00000+0  92283-4 0  9998
2 24946  86.3892 136.9882 0009305  42.3465 317.8448 14.34900075454855
IRIDIUM 28              
1 24948U 97051E   25182.87099190  .00000298  00000+0  93068-4 0  9998
2 24948  86.3981 135.2491 0002634  78.3080 281.8412 14.37394236455956
IRIDIUM 36              
1 24967U 97056C   25182.90165282  .00000323  00000+0  10115-3 0  9994
2 24967  86.3991 166.8201 0002211  82.1131 278.0318 14.37618977454333
